NORAD_CAT_ID,OBJECT_NAME,OBJECT_TYPE,EPOCH,MEAN_MOTION,ECCENTRICITY,INCLINATION,RA_OF_ASC_NODE,ARG_OF_PERICENTER,MEAN_ANOMALY,BSTAR,MEAN_MOTION_DOT,MEAN_MOTION_DDOT,TLE_LINE0,TLE_LINE1,TLE_LINE2,SEMIMAJOR_AXIS,PERIOD,APOGEE,PERIGEE,DECAYED
53912.0,STARLINK-5059,PAYLOAD,2024-03-19 00:30:39,15.08841615,0.0001427,53.2176,308.9646,87.1634,272.9521,0.00012959,1.775e-05,0.0,0 STARLINK-5059,1 53912U 22119AC  24079.02128682  .00001775  00000-0  12959-3 0  9995,2 53912  53.2176 308.9646 0001427  87.1634 272.9521 15.08841615 83036,6917.875,95.437,540.728,538.753,0.0
53912.0,STARLINK-5059,PAYLOAD,2024-03-20 00:21:25,15.0885297,0.0001355,53.217,304.5028,90.3605,269.7542,0.00015959,2.254e-05,0.0,0 STARLINK-5059,1 53912U 22119AC  24080.01487714  .00002254  00000-0  15959-3 0  9996,2 53912  53.2170 304.5028 0001355  90.3605 269.7542 15.08852970 82762,6917.841,95.437,540.643,538.768,0.0
53912.0,STARLINK-5059,PAYLOAD,2024-03-20 21:01:26,15.08838912,0.0001219,53.2169,300.6353,111.1809,248.9314,3.3827e-05,2.51e-06,0.0,0 STARLINK-5059,1 53912U 22119AC  24080.87600414  .00000251  00000-0  33827-4 0  9994,2 53912  53.2169 300.6353 0001219 111.1809 248.9314 15.08838912 82895,6917.884,95.438,540.592,538.905,0.0
53912.0,STARLINK-5059,PAYLOAD,2024-03-21 08:09:08,15.08837933,0.0001156,53.216,298.5561,123.0674,237.0429,2.2699e-05,7.3e-07,0.0,0 STARLINK-5059,1 53912U 22119AC  24081.33968505  .00000073  00000-0  22699-4 0  9991,2 53912  53.2160 298.5561 0001156 123.0674 237.0429 15.08837933 83387,6917.887,95.438,540.551,538.952,0.0
53912.0,STARLINK-5059,PAYLOAD,2024-03-21 20:52:13,15.08845539,0.0001484,53.2171,296.1788,127.6962,232.4164,8.2257e-05,1.022e-05,0.0,0 STARLINK-5059,1 53912U 22119AC  24081.86960306  .00001022  00000-0  82257-4 0  9991,2 53912  53.2171 296.1788 0001484 127.6962 232.4164 15.08845539 83463,6917.863,95.437,540.755,538.702,0.0
53912.0,STARLINK-5059,PAYLOAD,2024-03-22 20:43:00,15.08844149,0.0001272,53.2167,291.7191,103.9477,256.1656,0.00023447,3.446e-05,0.0,0 STARLINK-5059,1 53912U 22119AC  24082.86320443  .00003446  00000-0  23447-3 0  9991,2 53912  53.2167 291.7191 0001272 103.9477 256.1656 15.08844149 83195,6917.868,95.437,540.613,538.853,0.0
53912.0,STARLINK-5059,PAYLOAD,2024-03-23 20:33:48,15.08837486,0.0001286,53.2162,287.2546,99.9107,260.2031,-3.3228e-05,-8.17e-06,0.0,0 STARLINK-5059,1 53912U 22119AC  24083.85680742 -.00000817  00000-0 -33228-4 0  9992,2 53912  53.2162 287.2546 0001286  99.9107 260.2031 15.08837486 83349,6917.888,95.438,540.643,538.863,0.0
53912.0,STARLINK-5059,PAYLOAD,2024-03-24 06:06:06,15.08850934,0.0001117,53.2166,285.4702,80.406,279.7058,0.00013645,1.885e-05,0.0,0 STARLINK-5059,1 53912U 22119AC  24084.25423949  .00001885  00000-0  13645-3 0  9995,2 53912  53.2166 285.4702 0001117  80.4060 279.7058 15.08850934 83407,6917.847,95.437,540.485,538.939,0.0
53912.0,STARLINK-5059,PAYLOAD,2024-03-24 20:24:35,15.08841902,0.0001253,53.2159,282.8013,102.3288,257.7844,0.00010301,1.352e-05,0.0,0 STARLINK-5059,1 53912U 22119AC  24084.85040870  .00001352  00000-0  10301-3 0  9994,2 53912  53.2159 282.8013 0001253 102.3288 257.7844 15.08841902 83495,6917.875,95.437,540.606,538.873,0.0
53912.0,STARLINK-5059,PAYLOAD,2024-03-24 21:59:58,15.08851259,0.0001112,53.2152,282.4979,73.8388,286.2726,0.0002866,4.278e-05,0.0,0 STARLINK-5059,1 53912U 22119AC  24084.91664449  .00004278  00000-0  28660-3 0  9992,2 53912  53.2152 282.4979 0001112  73.8388 286.2726 15.08851259 83922,6917.846,95.437,540.48,538.942,0.0
53912.0,STARLINK-5059,PAYLOAD,2024-03-25 05:56:53,15.08858642,0.0001268,53.2169,281.0117,68.9561,291.1567,0.00031031,4.657e-05,0.0,0 STARLINK-5059,1 53912U 22119AC  24085.24783618  .00004657  00000-0  31031-3 0  9996,2 53912  53.2169 281.0117 0001268  68.9561 291.1567 15.08858642 83559,6917.823,95.436,540.566,538.811,0.0
53912.0,STARLINK-5059,PAYLOAD,2024-03-25 20:15:22,15.08829153,0.0001472,53.2164,278.335,85.2792,274.8368,-3.2743e-05,-8.09e-06,0.0,0 STARLINK-5059,1 53912U 22119AC  24085.84401608 -.00000809  00000-0 -32743-4 0  9997,2 53912  53.2164 278.3350 0001472  85.2792 274.8368 15.08829153 83649,6917.914,95.438,540.797,538.76,0.0
53912.0,STARLINK-5059,PAYLOAD,2024-03-26 12:09:14,15.08819459,0.0001305,53.2157,275.3611,77.4135,282.7003,-6.8988e-05,-1.385e-05,0.0,0 STARLINK-5059,1 53912U 22119AC  24086.50642290 -.00001385  00000-0 -68988-4 0  9995,2 53912  53.2157 275.3611 0001305  77.4135 282.7003 15.08819459 84167,6917.943,95.439,540.711,538.905,0.0
53912.0,STARLINK-5059,PAYLOAD,2024-03-26 20:06:10,15.08826814,0.0001514,53.2163,273.8781,78.8196,281.2966,-9.5024e-05,-1.799e-05,0.0,0 STARLINK-5059,1 53912U 22119AC  24086.83762236 -.00001799  00000-0 -95024-4 0  9994,2 53912  53.2163 273.8781 0001514  78.8196 281.2966 15.08826814 84210,6917.921,95.438,540.833,538.738,0.0
53912.0,STARLINK-5059,PAYLOAD,2024-03-27 12:00:02,15.08821463,0.000148,53.2167,270.902,81.5865,278.5295,0.00013283,1.826e-05,0.0,0 STARLINK-5059,1 53912U 22119AC  24087.50003013  .00001826  00000-0  13283-3 0  9995,2 53912  53.2167 270.9020 0001480  81.5865 278.5295 15.08821463 83896,6917.937,95.439,540.826,538.778,0.0
53912.0,STARLINK-5059,PAYLOAD,2024-03-27 18:21:34,15.08831641,0.0001345,53.2153,269.7138,80.2226,279.8918,0.00021335,3.108e-05,0.0,0 STARLINK-5059,1 53912U 22119AC  24087.76498300  .00003108  00000-0  21335-3 0  9992,2 53912  53.2153 269.7138 0001345  80.2226 279.8918 15.08831641 83934,6917.906,95.438,540.701,538.84,0.0
53912.0,STARLINK-5059,PAYLOAD,2024-03-27 21:32:20,15.08841339,0.0001392,53.2157,269.1184,84.125,275.9901,0.00018367,2.636e-05,0.0,0 STARLINK-5059,1 53912U 22119AC  24087.89745880  .00002636  00000-0  18367-3 0  9990,2 53912  53.2157 269.1184 0001392  84.1250 275.9901 15.08841339 84378,6917.876,95.437,540.704,538.778,0.0
53912.0,STARLINK-5059,PAYLOAD,2024-03-28 11:50:48,15.08838232,0.0001655,53.2173,266.4422,88.1914,271.9268,0.00024411,3.599e-05,0.0,0 STARLINK-5059,1 53912U 22119AC  24088.49362107  .00003599  00000-0  24411-3 0  9990,2 53912  53.2173 266.4422 0001655  88.1914 271.9268 15.08838232 84464,6917.886,95.438,540.896,538.606,0.0
53912.0,STARLINK-5059,PAYLOAD,2024-03-28 18:12:21,15.08838304,0.0001634,53.2173,265.2527,87.7826,272.3353,0.00022691,3.325e-05,0.0,0 STARLINK-5059,1 53912U 22119AC  24088.75858147  .00003325  00000-0  22691-3 0  9998,2 53912  53.2173 265.2527 0001634  87.7826 272.3353 15.08838304 84506,6917.886,95.438,540.881,538.62,0.0
53912.0,STARLINK-5059,PAYLOAD,2024-03-29 05:20:03,15.08842588,0.0001633,53.2175,263.1708,104.1605,255.9569,0.00020116,2.915e-05,0.0,0 STARLINK-5059,1 53912U 22119AC  24089.22225830  .00002915  00000-0  20116-3 0  9992,2 53912  53.2175 263.1708 0001633 104.1605 255.9569 15.08842588 84576,6917.872,95.437,540.867,538.608,0.0
53912.0,STARLINK-5059,PAYLOAD,2024-03-29 21:13:55,15.08841545,0.0001827,53.2186,260.1983,88.4057,271.7144,-1.0089e-05,-4.49e-06,0.0,0 STARLINK-5059,1 53912U 22119AC  24089.88466476 -.00000449  00000-0 -10089-4 0  9998,2 53912  53.2186 260.1983 0001827  88.4057 271.7144 15.08841545 84678,6917.876,95.437,541.005,538.477,0.0
53912.0,STARLINK-5059,PAYLOAD,2024-03-30 11:32:23,15.08833194,0.0001621,53.2221,257.5219,91.1622,268.9556,0.00012779,1.746e-05,0.0,0 STARLINK-5059,1 53912U 22119AC  24090.48082410  .00001746  00000-0  12779-3 0  9994,2 53912  53.2221 257.5219 0001621  91.1622 268.9556 15.08833194 84767,6917.901,95.438,540.888,538.645,0.0
53912.0,STARLINK-5059,PAYLOAD,2024-03-30 17:53:55,15.08832789,0.0002035,53.2199,256.3325,91.1767,268.9458,0.00010947,1.454e-05,0.0,0 STARLINK-5059,1 53912U 22119AC  24090.74578633  .00001454  00000-0  10947-3 0  9991,2 53912  53.2199 256.3325 0002035  91.1767 268.9458 15.08832789 84801,6917.902,95.438,541.175,538.36,0.0
53912.0,STARLINK-5059,PAYLOAD,2024-03-31 03:26:14,15.08840156,0.0002082,53.2219,254.5486,93.5417,266.5813,1.6736e-05,-2.2e-07,0.0,0 STARLINK-5059,1 53912U 22119AC  24091.14322335 -.00000022  00000-0  16736-4 0  9996,2 53912  53.2219 254.5486 0002082  93.5417 266.5813 15.08840156 84448,6917.88,95.438,541.185,538.305,0.0
53912.0,STARLINK-5059,PAYLOAD,2024-03-31 14:33:56,15.08830293,0.0001681,53.2209,252.4686,89.4126,270.7059,0.0001151,1.544e-05,0.0,0 STARLINK-5059,1 53912U 22119AC  24091.60690600  .00001544  00000-0  11510-3 0  9993,2 53912  53.2209 252.4686 0001681  89.4126 270.7059 15.08830293 84935,6917.91,95.438,540.938,538.612,0.0
53912.0,STARLINK-5059,PAYLOAD,2024-03-31 17:44:42,15.08830153,0.0001056,53.2195,251.8751,85.3763,274.735,0.00013546,1.868e-05,0.0,0 STARLINK-5059,1 53912U 22119AC  24091.73938384  .00001868  00000-0  13546-3 0  9991,2 53912  53.2195 251.8751 0001056  85.3763 274.7350 15.08830153 84958,6917.91,95.438,540.506,539.045,0.0
53912.0,STARLINK-5059,PAYLOAD,2024-04-01 03:17:00,15.08846788,0.0001736,53.2192,250.09,94.481,265.6381,0.0001332,1.833e-05,0.0,0 STARLINK-5059,1 53912U 22119AC  24092.13681497  .00001833  00000-0  13320-3 0  9998,2 53912  53.2192 250.0900 0001736  94.4810 265.6381 15.08846788 84595,6917.86,95.437,540.926,538.524,0.0
53912.0,STARLINK-5059,PAYLOAD,2024-04-01 11:13:58,15.08826957,0.0001817,53.2186,248.6019,98.0865,262.0334,-2.2666e-05,-6.49e-06,0.0,0 STARLINK-5059,1 53912U 22119AC  24092.46803276 -.00000649  00000-0 -22666-4 0  9995,2 53912  53.2186 248.6019 0001817  98.0865 262.0334 15.08826957 84643,6917.92,95.438,541.042,538.528,0.0
53912.0,STARLINK-5059,PAYLOAD,2024-04-01 14:24:44,15.08826657,0.0001745,53.2177,248.0072,100.0349,260.084,-2.2544e-05,-6.47e-06,0.0,0 STARLINK-5059,1 53912U 22119AC  24092.60051335 -.00000647  00000-0 -22544-4 0  9995,2 53912  53.2177 248.0072 0001745 100.0349 260.0840 15.08826657 85083,6917.921,95.438,540.993,538.579,0.0
53912.0,STARLINK-5059,PAYLOAD,2024-04-01 19:10:53,15.08834435,0.0001683,53.2176,247.1142,96.0623,264.0561,3.7674e-05,3.11e-06,0.0,0 STARLINK-5059,1 53912U 22119AC  24092.79922772  .00000311  00000-0  37674-4 0  9993,2 53912  53.2176 247.1142 0001683  96.0623 264.0561 15.08834435 84693,6917.897,95.438,540.927,538.598,0.0
